UNKNOWN                 
1 87051U 76126    23001.50331756  .00002086  00000+0  71941-3 0  9999
2 87051  65.7323 282.3010 0766128 264.9294  86.3954 13.37262288444224
UNKNOWN                 
1 87054U 75052    23001.56526735  .00001340  00000+0  92329-3 0  9993
2 87054 100.0851 106.8955 0014144 346.8901  13.1891 14.01359386465086
UNKNOWN                 
1 87065U 99025    22365.44075253  .00000942  00000+0  11851-2 0  9991
2 87065  98.6912 357.6201 0336440 181.6233 178.3837 13.44833327371579
UNKNOWN                 
1 87071U 68097    22365.88559230  .00004160  00000+0  16001-2 0  9991
2 87071  61.2202 185.1459 0570575  80.4999 286.0004 13.67728411454260
UNKNOWN                 
1 87074U 77121    23001.35380586  .00000126  00000+0  21341-3 0  9990
2 87074  66.1433 348.5927 0143464 142.8049 218.3058 13.70390270455631
UNKNOWN                 
1 87113U 76126    23001.48536076  .00010270  00000+0  15816-2 0  9999
2 87113  65.6654  14.9371 0330596  52.3698 102.0978 14.43140912476472
UNKNOWN                 
1 87129U 76077    22365.93760278  .00000143  00000+0  13824-2 0  9991
2 87129 102.3134  67.0957 0033581 260.3154  99.4115 12.42176520412936
UNKNOWN                 
1 87159U          23001.52695929  .00001179  00000+0  14563-2 0  9991
2 87159  90.3126  32.4857 0116903 200.6194 159.0226 13.61814656409991
UNKNOWN                 
1 87163U 76126    22365.35695503  .00001653  00000+0  54002-3 0  9999
2 87163  65.6034 348.7566 0699949 176.7047 183.8996 13.52135436431238
UNKNOWN                 
1 87164U          23001.18407864  .00003434  00000+0  95496-3 0  9999
2 87164  65.2031 172.1323 0133990 152.1053 208.7308 14.42645088479691
UNKNOWN                 
1 87203U          22362.66961477  .00015989  00000+0  31126-2 0  9997
2 87203  98.8865 311.1456 0058013  30.7861 329.6719 14.62072187395023
UNKNOWN                 
1 87204U          23001.60069854  .00001923  00000+0  88249-3 0  9993
2 87204  98.6418 233.4855 0049760 223.6325 136.0913 14.21782160472130
UNKNOWN                 
1 87211U          22365.54294466  .00002605  00000+0  93973-3 0  9993
2 87211  99.0078 289.9969 0067559  90.0175  85.4131 14.33248551552808
UNKNOWN                 
1 87214U 70025    23001.62843516 -.00000170  00000+0 -11385-3 0  9997
2 87214 100.3181 250.6912 0070222 131.6523 229.0667 13.79256878451656
UNKNOWN                 
1 87228U 99025    23001.33624826  .00010894  00000+0  34821-2 0  9993
2 87228  98.9265 144.4124 0038992  41.2760 319.1363 14.39369572449843
UNKNOWN                 
1 87235U          22360.88007669  .00003285  00000+0  11840-2 0  9995
2 87235  98.9737 153.8263 0149644 113.8371 247.8575 14.28307130430846
UNKNOWN                 
1 87237U 99025    23001.39197875  .00000324  00000+0  28614-3 0  9999
2 87237  99.3942  41.5494 0104414 304.8040  68.1238 13.90268161462125
UNKNOWN                 
1 87239U 81053    22365.98031482  .00004032  00000+0  16196-2 0  9992
2 87239  82.8817 256.6332 0028761 128.6404 231.7362 14.27761445473099
UNKNOWN                 
1 87245U 71015    22365.29910394  .00008663  00000+0  19520-2 0  9996
2 87245  65.6630   1.9671 0524548 281.4031  87.3616 13.96143892462789
UNKNOWN                 
1 87256U 99025    22363.46323665  .00001608  00000+0  97621-3 0  9996
2 87256  98.8328  67.7030 0043886 197.5109 162.4548 14.07218988431907
UNKNOWN                 
1 87271U 71015    23001.19503429  .00007909  00000+0  17164-2 0  9993
2 87271  65.7731 181.1893 0553930 260.2544  93.5574 13.92328968460975
UNKNOWN                 
1 87280U          22365.74500867  .00000211  00000+0  46592-3 0  9992
2 87280  64.6176  15.5912 0103554 164.2753 196.1543 13.47245404388693
UNKNOWN                 
1 87293U 71015    23001.60594423  .00007647  00000+0  17867-2 0  9996
2 87293  65.9110  71.5776 0519425 217.8687 138.4776 13.95735776462686
UNKNOWN                 
1 87300U 70025    22362.44350662  .00000812  00000+0  65366-3 0  9996
2 87300 100.0743 229.3152 0032434 281.8111  77.9409 13.93760315462340
UNKNOWN                 
1 87304U          22363.40947228  .00001103  00000+0  19338-3 0  9995
2 87304  74.0202 262.4038 0020090 149.6030 210.6310 14.68934130487661
UNKNOWN                 
1 87305U 93036    22364.67032149  .00017901  00000+0  30341-2 0  9993
2 87305  73.9944 140.2645 0030147 191.5597 168.4885 14.68936044315706
UNKNOWN                 
1 87320U 71015    23001.03980768  .00000949  00000+0  66853-3 0  9993
2 87320  66.5960 117.1537 0444861  16.1635 345.3104 13.62945742446645
UNKNOWN                 
1 87334U          23001.49048858  .00011157  00000+0  13090-1 0  9995
2 87334  89.9936 270.9532 0097270 312.3670  46.9283 13.66124653238121
UNKNOWN                 
1 87335U          23001.49554542  .00008365  00000+0  98833-2 0  9994
2 87335  89.9799 268.9625 0095300 286.5610  72.5099 13.65785091238181
UNKNOWN                 
1 87397U 94029    22365.27118941  .00035808  00000+0  49409-2 0  9990
2 87397  81.2411 195.9324 0010466 295.0846  64.9275 14.77952242398520
UNKNOWN                 
1 87405U 81053    23001.47052864  .00000957  00000+0  75729-3 0  9996
2 87405  82.7564 183.7117 0053964 177.5709 182.5728 13.89820050461335
UNKNOWN                 
1 87410U 76077    22358.27893491 -.00000006  00000+0  34147-3 0  9998
2 87410 102.2612 294.0524 0191650 214.9297 143.9054 12.20257965404674
UNKNOWN                 
1 87416U 81053    22365.90332326  .00004803  00000+0  18837-2 0  9992
2 87416  82.8358 176.4979 0019799 201.5974 158.4379 14.29130806454709
UNKNOWN                 
1 87426U          23001.29076480  .00002420  00000+0  12608-2 0  9995
2 87426  65.7913 335.9136 0066953 143.9000 287.4267 14.15240463469540
UNKNOWN                 
1 87433U          22364.66862024  .00001817  00000+0  35662-2 0  9996
2 87433 100.1935 143.3389 0044300 325.2277  34.5955 13.36942287288358
UNKNOWN                 
1 87448U 70025    23001.14011836  .00001145  00000+0  10393-2 0  9993
2 87448 100.4359  71.0279 0067117 100.1499 260.7231 13.85100605459915
UNKNOWN                 
1 87456U 76126    22365.75869653  .00005591  00000+0  98967-3 0  9990
2 87456  65.7914  13.8016 0609012 193.5215 164.8894 13.89685589460616
UNKNOWN                 
1 87468U 93036    22363.91213224  .00013163  00000+0  13418-2 0  9996
2 87468  74.0129 232.0245 0058289 265.4866  93.9655 14.89442622319557
UNKNOWN                 
1 87491U 99025    22364.97244824  .00018792  00000+0  39811-2 0  9991
2 87491  98.6224  94.1544 0065053 229.1472 130.4076 14.57919616425185
UNKNOWN                 
1 87501U 93036    22364.21871266  .00027056  00000+0  64820-2 0  9993
2 87501  74.0286  80.0980 0019719  21.2779 338.9199 14.53272738312516
UNKNOWN                 
1 87517U 76126    23001.23515369  .00001982  00000+0  67582-3 0  9990
2 87517  65.8299 305.3338 0713756 101.4562 334.1431 13.47479559447145
UNKNOWN                 
1 87541U 70025    23001.18623770  .00000084  00000+0  24897-3 0  9993
2 87541  99.8400 251.4427 0059990 341.0584 173.5206 13.35031986438355
UNKNOWN                 
1 87553U 76126    23001.56630231  .00002230  00000+0  75157-3 0  9996
2 87553  65.6729  58.2756 0738000 343.5518  14.2683 13.43272841446165
UNKNOWN                 
1 87557U 73086    22365.66295665  .00004072  00000+0  10755-1 0  9990
2 87557 101.8292  73.2556 0091037 214.1001 145.4236 13.15296721422789
UNKNOWN                 
1 87561U 76077    23001.02976946 -.00000072  00000+0 -22261-3 0  9999
2 87561 102.1442  71.5995 0175143 100.8373  20.5260 12.32133325409825
UNKNOWN                 
1 87565U 99025    23001.63349479  .00000465  00000+0  29902-3 0  9996
2 87565  99.9066 246.9972 0182023 194.5020 165.0878 14.00963487465505
UNKNOWN                 
1 87569U 99025    22365.17488605 -.00000024  00000+0  12055-3 0  9999
2 87569 101.8542 130.6198 0055866 212.8973 270.7611 12.68485174421836
UNKNOWN                 
1 87587U 93036    22363.52828071  .00000231  00000+0  83141-4 0  9991
2 87587  74.0256 296.8023 0022035 236.4408 123.4643 14.39012888783544
UNKNOWN                 
1 87590U 99025    22364.59417044  .00000482  00000+0  30849-3 0  9995
2 87590  98.9178  44.6053 0028148  82.2614  69.6291 14.07986899  2401
UNKNOWN                 
1 87616U 76067    22363.75542066  .00000739  00000+0  26610-2 0  9990
2 87616  66.0381 107.2187 0644016 238.2498 284.1418 12.45151943401803
UNKNOWN                 
1 87624U 99025    23001.61579253  .00003666  00000+0  79009-3 0  9994
2 87624  98.7345 234.9066 0126989 325.4278  33.8707 14.54182997423143
UNKNOWN                 
1 87650U          22354.64751653  .00004148  00000+0  15064-2 0  9993
2 87650 100.2689 287.2256 0053257 140.9273 219.5770 14.33183781 30737
UNKNOWN                 
1 87664U 75052    22365.18715044  .00000212  00000+0  68621-3 0  9998
2 87664  99.7417 330.7591 0213491 277.2311  92.9639 13.06370611400630
UNKNOWN                 
1 87672U 93016    22363.14303982  .00002075  00000+0  99006-3 0  9995
2 87672  70.8617 162.3062 0061349 113.7512 247.0063 14.19415135470821
UNKNOWN                 
1 87681U          22365.35102222  .00001045  00000+0  12102-2 0  9992
2 87681  66.7377 123.0519 0159101 155.3418 205.5364 13.67661003454329
UNKNOWN                 
1 87690U 76126    23001.34695615  .00004690  00000+0  75630-3 0  9999
2 87690  65.7981 228.3095 0674073 228.2504 125.9042 13.80605054457749
UNKNOWN                 
1 87706U          23001.63478747  .00002157  00000+0  51542-3 0  9994
2 87706  98.5748 135.5915 0132691 326.3024  45.3931 14.49511773421860
UNKNOWN                 
1 87725U 81053    23001.01818434  .00008889  00000+0  27761-2 0  9998
2 87725  82.8932 101.2240 0029729 265.1693  94.6105 14.40451422476788
UNKNOWN                 
1 87727U 92093    22365.87388691  .00102014  00000+0  72795-2 0  9991
2 87727  70.9707 177.3411 0009472 256.5427 103.4687 15.03929966484555
UNKNOWN                 
1 87730U          23001.14172384  .00000090  00000+0  79239-4 0  9993
2 87730  82.9455 310.5175 0031050 122.3013 238.1157 13.74228673437456
